NORAD_CAT_ID,OBJECT_NAME,OBJECT_TYPE,EPOCH,MEAN_MOTION,ECCENTRICITY,INCLINATION,RA_OF_ASC_NODE,ARG_OF_PERICENTER,MEAN_ANOMALY,BSTAR,MEAN_MOTION_DOT,MEAN_MOTION_DDOT,TLE_LINE0,TLE_LINE1,TLE_LINE2,SEMIMAJOR_AXIS,PERIOD,APOGEE,PERIGEE,DECAYED
51873.0,STARLINK-3582,PAYLOAD,2022-11-07 12:21:08,15.0882419,0.0001444,53.2194,77.7121,56.6631,303.4499,8.367e-05,1.043e-05,0.0,0 STARLINK-3582,1 51873U 22022X   22311.51468197  .00001043  00000-0  83670-4 0  9998,2 51873  53.2194  77.7121 0001444  56.6631 303.4499 15.08824190 39210,6917.929,95.439,540.793,538.795,0.0
51873.0,STARLINK-3582,PAYLOAD,2022-11-07 17:07:18,15.0880378,0.0002165,53.2186,76.8215,18.7949,341.3122,0.00038508,5.84e-05,0.0,0 STARLINK-3582,1 51873U 22022X   22311.71341010  .00005840  00000-0  38508-3 0  9992,2 51873  53.2186  76.8215 0002165  18.7949 341.3122 15.08803780 39246,6917.991,95.44,541.354,538.3580000000002,0.0
51873.0,STARLINK-3582,PAYLOAD,2022-11-08 07:25:44,15.08849146,0.0001795,53.2197,74.1458,51.0658,309.0494,9.869e-05,1.283e-05,0.0,0 STARLINK-3582,1 51873U 22022X   22312.30954814  .00001283  00000-0  98690-4 0  9996,2 51873  53.2197  74.1458 0001795  51.0658 309.0494 15.08849146 39332,6917.852,95.437,540.9590000000002,538.476,0.0
51873.0,STARLINK-3582,PAYLOAD,2022-11-08 15:22:40,15.08855531,0.0001786,53.2185,72.6588,46.1185,313.9954,0.00014443,2.012e-05,0.0,0 STARLINK-3582,1 51873U 22022X   22312.64074111  .00002012  00000-0  14443-3 0  9990,2 51873  53.2185  72.6588 0001786  46.1185 313.9954 15.08855531 39381,6917.833000000001,95.437,540.933,538.462,0.0
51873.0,STARLINK-3582,PAYLOAD,2022-11-09 13:38:05,15.08830853,0.000167,53.2196,68.4965,48.2896,311.8239,-4.1134e-05,-9.42e-06,0.0,0 STARLINK-3582,1 51873U 22022X   22313.56811390 -.00000942  00000-0 -41134-4 0  9990,2 51873  53.2196  68.4965 0001670  48.2896 311.8239 15.08830853 39528,6917.908,95.438,540.929,538.618,0.0
51873.0,STARLINK-3582,PAYLOAD,2022-11-10 13:28:53,15.08822888,0.0001913,53.2194,64.0368,45.7756,314.3393,-0.00024799,-4.231e-05,0.0,0 STARLINK-3582,1 51873U 22022X   22314.56172924 -.00004231  00000-0 -24799-3 0  9996,2 51873  53.2194  64.0368 0001913  45.7756 314.3393 15.08822888 39676,6917.933000000001,95.439,541.121,538.474,0.0
51873.0,STARLINK-3582,PAYLOAD,2022-11-10 15:04:16,15.08822709,0.0001895,53.2195,63.7392,49.50100000000001,310.6147,-0.00022642,-3.888e-05,0.0,0 STARLINK-3582,1 51873U 22022X   22314.62796914 -.00003888  00000-0 -22642-3 0  9996,2 51873  53.2195  63.7392 0001895  49.5010 310.6147 15.08822709 39683,6917.933000000001,95.439,541.109,538.487,0.0
51873.0,STARLINK-3582,PAYLOAD,2022-11-11 13:19:39,15.08827284,0.0001657,53.2199,59.5752,54.3163,305.7983,0.0001135,1.518e-05,0.0,0 STARLINK-3582,1 51873U 22022X   22315.55531993  .00001518  00000-0  11350-3 0  9993,2 51873  53.2199  59.5752 0001657  54.3163 305.7983 15.08827284 39821,6917.919,95.438,540.931,538.638,0.0
51873.0,STARLINK-3582,PAYLOAD,2022-11-11 14:55:02,15.0882986,0.0001792,53.2196,59.2782,47.1796,312.9346,0.00013585,1.874e-05,0.0,0 STARLINK-3582,1 51873U 22022X   22315.62155871  .00001874  00000-0  13585-3 0  9995,2 51873  53.2196  59.2782 0001792  47.1796 312.9346 15.08829860 39836,6917.911,95.438,541.016,538.5369999999998,0.0
51873.0,STARLINK-3582,PAYLOAD,2022-11-12 13:10:26,15.08839995,0.0001868,53.2194,55.1151,44.4914,315.6228,0.00030942,4.64e-05,0.0,0 STARLINK-3582,1 51873U 22022X   22316.54891236  .00004640  00000-0  30942-3 0  9999,2 51873  53.2194  55.1151 0001868  44.4914 315.6228 15.08839995 39979,6917.88,95.438,541.038,538.453,0.0
51873.0,STARLINK-3582,PAYLOAD,2022-11-13 13:01:14,15.08834095,0.0001963,53.2194,50.6554,48.5233,311.5927,-3.0016e-05,-7.66e-06,0.0,0 STARLINK-3582,1 51873U 22022X   22317.54252727 -.00000766  00000-0 -30016-4 0  9996,2 51873  53.2194  50.6554 0001963  48.5233 311.5927 15.08834095 40127,6917.898,95.438,541.121,538.405,0.0
51873.0,STARLINK-3582,PAYLOAD,2022-11-14 11:16:38,15.08828513,0.0001965,53.2197,46.4922,44.6406,315.4745,8.274e-05,1.029e-05,0.0,0 STARLINK-3582,1 51873U 22022X   22318.46989031  .00001029  00000-0  82740-4 0  9995,2 51873  53.2197  46.4922 0001965  44.6406 315.4745 15.08828513 40267,6917.916,95.438,541.14,538.4209999999998,0.0
51873.0,STARLINK-3582,PAYLOAD,2022-11-14 12:52:01,15.08839819,0.0002002,53.2192,46.1948,37.9146,322.1987,-3.3884e-05,-8.27e-06,0.0,0 STARLINK-3582,1 51873U 22022X   22318.53612550 -.00000827  00000-0 -33884-4 0  9994,2 51873  53.2192  46.1948 0002002  37.9146 322.1987 15.08839819 40271,6917.880999999999,95.438,541.131,538.361,0.0
51873.0,STARLINK-3582,PAYLOAD,2022-11-14 22:24:19,15.08847968,0.0001998,53.2195,44.4107,37.505,322.6082,-3.2416e-05,-8.04e-06,0.0,0 STARLINK-3582,1 51873U 22022X   22318.93355916 -.00000804  00000-0 -32416-4 0  9993,2 51873  53.2195  44.4107 0001998  37.5050 322.6082 15.08847968 40337,6917.856,95.437,541.1030000000002,538.339,0.0
51873.0,STARLINK-3582,PAYLOAD,2022-11-15 06:21:15,15.08831232,0.0002002,53.2198,42.9254,34.7228,325.3895,0.00010993,1.461e-05,0.0,0 STARLINK-3582,1 51873U 22022X   22319.26476507  .00001461  00000-0  10993-3 0  9993,2 51873  53.2198  42.9254 0002002  34.7228 325.3895 15.08831232 40383,6917.906999999997,95.438,541.1569999999998,538.387,0.0
51873.0,STARLINK-3582,PAYLOAD,2022-11-15 12:42:48,15.08832278,0.0002025,53.2203,41.7373,38.2408,321.8728,0.00014586,2.033e-05,0.0,0 STARLINK-3582,1 51873U 22022X   22319.52972577  .00002033  00000-0  14586-3 0  9998,2 51873  53.2203  41.7373 0002025  38.2408 321.8728 15.08832278 40425,6917.904,95.438,541.17,538.368,0.0
51873.0,STARLINK-3582,PAYLOAD,2022-11-15 14:18:11,15.08833538,0.0002021,53.2199,41.4392,39.112,321.0018,0.00014958,2.093e-05,0.0,0 STARLINK-3582,1 51873U 22022X   22319.59596517  .00002093  00000-0  14958-3 0  9990,2 51873  53.2199  41.4392 0002021  39.1120 321.0018 15.08833538 40439,6917.9,95.438,541.163,538.367,0.0
51873.0,STARLINK-3582,PAYLOAD,2022-11-16 12:33:35,15.0883369,0.0002062,53.2198,37.2744,22.762,337.3463,4.3293e-05,4.01e-06,0.0,0 STARLINK-3582,1 51873U 22022X   22320.52333220  .00000401  00000-0  43293-4 0  9991,2 51873  53.2198  37.2744 0002062  22.7620 337.3463 15.08833690 40578,6917.9,95.438,541.191,538.3380000000002,0.0
51873.0,STARLINK-3582,PAYLOAD,2022-11-16 14:08:59,15.0883025,0.0002145,53.2196,36.9776,32.3869,327.7254,-1.416e-06,-3.11e-06,0.0,0 STARLINK-3582,1 51873U 22022X   22320.58957498 -.00000311  00000-0 -14160-5 0  9990,2 51873  53.2196  36.9776 0002145  32.3869 327.7254 15.08830250 40582,6917.91,95.438,541.259,538.2909999999998,0.0
51873.0,STARLINK-3582,PAYLOAD,2022-11-17 09:13:36,15.08839386,0.0002103,53.2199,33.4097,34.4718,325.641,8.1381e-05,1.007e-05,0.0,0 STARLINK-3582,1 51873U 22022X   22321.38445013  .00001007  00000-0  81381-4 0  9993,2 51873  53.2199  33.4097 0002103  34.4718 325.6410 15.08839386 40707,6917.882,95.438,541.202,538.2919999999998,0.0
51873.0,STARLINK-3582,PAYLOAD,2022-11-17 10:48:59,15.0884363,0.0002088,53.2195,33.111999999999995,34.1039,326.0087,5.7162e-05,6.22e-06,0.0,0 STARLINK-3582,1 51873U 22022X   22321.45068813  .00000622  00000-0  57162-4 0  9992,2 51873  53.2195  33.1120 0002088  34.1039 326.0087 15.08843630 40715,6917.869000000002,95.437,541.179,538.29,0.0
51873.0,STARLINK-3582,PAYLOAD,2022-11-18 10:39:46,15.08841906,0.0001931,53.2193,28.652,39.596,320.5173,1.6053e-05,-3.3e-07,0.0,0 STARLINK-3582,1 51873U 22022X   22322.44429179 -.00000033  00000-0  16053-4 0  9999,2 51873  53.2193  28.6520 0001931  39.5960 320.5173 15.08841906 40869,6917.875,95.437,541.075,538.404,0.0
51873.0,STARLINK-3582,PAYLOAD,2022-11-19 04:09:02,15.088356400000002,0.0002142,53.2192,25.3809,36.9147,323.1993,-1.3202e-05,-4.98e-06,0.0,0 STARLINK-3582,1 51873U 22022X   22323.17293987 -.00000498  00000-0 -13202-4 0  9995,2 51873  53.2192  25.3809 0002142  36.9147 323.1993 15.08835640 40974,6917.894,95.438,541.241,538.2769999999998,0.0
51873.0,STARLINK-3582,PAYLOAD,2022-11-19 10:30:33,15.08845147,0.0002233,53.2181,24.1932,35.1793,324.9346,5.8295e-05,6.4e-06,0.0,0 STARLINK-3582,1 51873U 22022X   22323.43789039  .00000640  00000-0  58295-4 0  9990,2 51873  53.2181  24.1932 0002233  35.1793 324.9346 15.08845147 41015,6917.865,95.437,541.274,538.185,0.0
51873.0,STARLINK-3582,PAYLOAD,2022-11-19 13:41:19,15.08845238,0.0002239,53.2178,23.5993,31.9664,328.1464,5.5245e-05,5.91e-06,0.0,0 STARLINK-3582,1 51873U 22022X   22323.57037035  .00000591  00000-0  55245-4 0  9994,2 51873  53.2178  23.5993 0002239  31.9664 328.1464 15.08845238 41038,6917.864000000001,95.437,541.278,538.18,0.0
51873.0,STARLINK-3582,PAYLOAD,2022-11-20 10:21:20,15.08851546,0.0002208,53.2188,19.731,36.2273,323.8868,7.808e-05,9.55e-06,0.0,0 STARLINK-3582,1 51873U 22022X   22324.43148395  .00000955  00000-0  78080-4 0  9998,2 51873  53.2188  19.7310 0002208  36.2273 323.8868 15.08851546 41162,6917.845,95.437,541.238,538.183,0.0
51873.0,STARLINK-3582,PAYLOAD,2022-11-20 13:32:07,15.08840151,0.0002279,53.2189,19.1366,34.0192,326.0946,-2.3024e-05,-6.55e-06,0.0,0 STARLINK-3582,1 51873U 22022X   22324.56397347 -.00000655  00000-0 -23024-4 0  9992,2 51873  53.2189  19.1366 0002279  34.0192 326.0946 15.08840151 41186,6917.88,95.438,541.322,538.168,0.0
51873.0,STARLINK-3582,PAYLOAD,2022-11-21 03:50:35,15.08840032,0.0002393,53.2173,16.4612,34.1059,326.0086,-2.5087e-05,-6.88e-06,0.0,0 STARLINK-3582,1 51873U 22022X   22325.16013382 -.00000688  00000-0 -25087-4 0  9990,2 51873  53.2173  16.4612 0002393  34.1059 326.0086 15.08840032 41276,6917.88,95.438,541.401,538.09,0.0
51873.0,STARLINK-3582,PAYLOAD,2022-11-21 10:12:08,15.08838849,0.0002426,53.2201,15.2716,35.829,324.2864,-8.0821e-05,-1.574e-05,0.0,0 STARLINK-3582,1 51873U 22022X   22325.42509758 -.00001574  00000-0 -80821-4 0  9998,2 51873  53.2201  15.2716 0002426  35.8290 324.2864 15.08838849 41314,6917.884,95.438,541.427,538.071,0.0
